{
  "type": "FeatureCollection",
  "features": [
    {
      "type": "Feature",
      "properties": {
        "norad_id": 66403,
        "name": "STARLINK-35602",
        "group": "last-30-days",
        "lat": 1.034140333102898,
        "lon": 114.51668780024136,
        "alt_km": 425.16391282568475,
        "timestamp": "2025-12-06T03:35:00.472249+00:00",
        "meta_object_name": "STARLINK-35602",
        "meta_object_id": "2025-257Z",
        "meta_epoch": "2025-12-05T06:40:10.218720",
        "meta_mean_motion": 15.47908574,
        "meta_eccentricity": 0.00036862,
        "meta_inclination": 53.1592,
        "meta_ra_of_asc_node": 299.451,
        "meta_arg_of_pericenter": 297.9117,
        "meta_mean_anomaly": 62.1518,
        "meta_ephemeris_type": 0,
        "meta_classification_type": "U",
        "meta_norad_cat_id": 66403,
        "meta_element_set_no": 999,
        "meta_rev_at_epoch": 522,
        "meta_bstar": -0.00078917003,
        "meta_mean_motion_dot": -0.00042019,
        "meta_mean_motion_ddot": 0,
        "tle_line1": "1 66403U 25257Z   25339.27789605 -.00042019  00000+0 -78917-3 0  9998",
        "tle_line2": "2 66403  53.1592 299.4510 0003686 297.9117  62.1518 15.47908574  5227"
      },
      "geometry": {
        "type": "Point",
        "coordinates": [
          114.51668780024136,
          1.034140333102898
        ]
      }
    },
    {
      "type": "Feature",
      "properties": {
        "norad_id": 66404,
        "name": "STARLINK-35691",
        "group": "last-30-days",
        "lat": -6.023179630538035,
        "lon": 119.8114305184087,
        "alt_km": 419.7051970531693,
        "timestamp": "2025-12-06T03:35:00.472261+00:00",
        "meta_object_name": "STARLINK-35691",
        "meta_object_id": "2025-257AA",
        "meta_epoch": "2025-12-05T06:39:12.533760",
        "meta_mean_motion": 15.49346402,
        "meta_eccentricity": 8.916e-05,
        "meta_inclination": 53.1591,
        "meta_ra_of_asc_node": 299.4462,
        "meta_arg_of_pericenter": 83.1042,
        "meta_mean_anomaly": 277.0069,
        "meta_ephemeris_type": 0,
        "meta_classification_type": "U",
        "meta_norad_cat_id": 66404,
        "meta_element_set_no": 999,
        "meta_rev_at_epoch": 522,
        "meta_bstar": 0.002466521,
        "meta_mean_motion_dot": 0.00139387,
        "meta_mean_motion_ddot": 0,
        "tle_line1": "1 66404U 25257AA  25339.27722840  .00139387  00000+0  24665-2 0  9990",
        "tle_line2": "2 66404  53.1591 299.4462 0000891  83.1042 277.0069 15.49346402  5226"
      },
      "geometry": {
        "type": "Point",
        "coordinates": [
          119.8114305184087,
          -6.023179630538035
        ]
      }
    },
    {
      "type": "Feature",
      "properties": {
        "norad_id": 66405,
        "name": "STARLINK-35683",
        "group": "last-30-days",
        "lat": -7.307162435567346,
        "lon": 120.78703461781855,
        "alt_km": 420.32251147935494,
        "timestamp": "2025-12-06T03:35:00.472271+00:00",
        "meta_object_name": "STARLINK-35683",
        "meta_object_id": "2025-257AB",
        "meta_epoch": "2025-12-05T03:32:55.910112",
        "meta_mean_motion": 15.49296572,
        "meta_eccentricity": 0.00011798,
        "meta_inclination": 53.1594,
        "meta_ra_of_asc_node": 300.0603,
        "meta_arg_of_pericenter": 87.8456,
        "meta_mean_anomaly": 272.2688,
        "meta_ephemeris_type": 0,
        "meta_classification_type": "U",
        "meta_norad_cat_id": 66405,
        "meta_element_set_no": 999,
        "meta_rev_at_epoch": 513,
        "meta_bstar": 0.0011542428,
        "meta_mean_motion_dot": 0.00064247,
        "meta_mean_motion_ddot": 0,
        "tle_line1": "1 66405U 25257AB  25339.14786933  .00064247  00000+0  11542-2 0  9992",
        "tle_line2": "2 66405  53.1594 300.0603 0001179  87.8456 272.2688 15.49296572  5132"
      },
      "geometry": {
        "type": "Point",
        "coordinates": [
          120.78703461781855,
          -7.307162435567346
        ]
      }
    },
    {
      "type": "Feature",
      "properties": {
        "norad_id": 66406,
        "name": "STARLINK-34840",
        "group": "last-30-days",
        "lat": -12.127460075712587,
        "lon": 124.52904845339118,
        "alt_km": 420.3438474099048,
        "timestamp": "2025-12-06T03:35:00.472282+00:00",
        "meta_object_name": "STARLINK-34840",
        "meta_object_id": "2025-257AC",
        "meta_epoch": "2025-12-05T06:37:13.755360",
        "meta_mean_motion": 15.49345602,
        "meta_eccentricity": 9.026e-05,
        "meta_inclination": 53.1589,
        "meta_ra_of_asc_node": 299.4365,
        "meta_arg_of_pericenter": 91.8287,
        "meta_mean_anomaly": 268.2825,
        "meta_ephemeris_type": 0,
        "meta_classification_type": "U",
        "meta_norad_cat_id": 66406,
        "meta_element_set_no": 999,
        "meta_rev_at_epoch": 516,
        "meta_bstar": 0.0025802698,
        "meta_mean_motion_dot": 0.00145955,
        "meta_mean_motion_ddot": 0,
        "tle_line1": "1 66406U 25257AC  25339.27585365  .00145955  00000+0  25803-2 0  9994",
        "tle_line2": "2 66406  53.1589 299.4365 0000902  91.8287 268.2825 15.49345602  5163"
      },
      "geometry": {
        "type": "Point",
        "coordinates": [
          124.52904845339118,
          -12.127460075712587
        ]
      }
    },
    {
      "type": "Feature",
      "properties": {
        "norad_id": 66407,
        "name": "STARLINK-35686",
        "group": "last-30-days",
        "lat": -17.596230614681392,
        "lon": 128.999262612273,
        "alt_km": 407.2820293400637,
        "timestamp": "2025-12-06T03:35:00.472292+00:00",
        "meta_object_name": "STARLINK-35686",
        "meta_object_id": "2025-257AD",
        "meta_epoch": "2025-12-05T05:04:43.288896",
        "meta_mean_motion": 15.51267271,
        "meta_eccentricity": 0.00081315,
        "meta_inclination": 53.1592,
        "meta_ra_of_asc_node": 299.7469,
        "meta_arg_of_pericenter": 236.5195,
        "meta_mean_anomaly": 123.5038,
        "meta_ephemeris_type": 0,
        "meta_classification_type": "U",
        "meta_norad_cat_id": 66407,
        "meta_element_set_no": 999,
        "meta_rev_at_epoch": 521,
        "meta_bstar": 0.013052692,
        "meta_mean_motion_dot": 0.00853869,
        "meta_mean_motion_ddot": 0,
        "tle_line1": "1 66407U 25257AD  25339.21161214  .00853869  00000+0  13053-1 0  9995",
        "tle_line2": "2 66407  53.1592 299.7469 0008131 236.5195 123.5038 15.51267271  5217"
      },
      "geometry": {
        "type": "Point",
        "coordinates": [
          128.999262612273,
          -17.596230614681392
        ]
      }
    },
    {
      "type": "Feature",
      "properties": {
        "norad_id": 66408,
        "name": "STARLINK-35679",
        "group": "last-30-days",
        "lat": -10.807330567082746,
        "lon": 123.49073994626754,
        "alt_km": 419.82289400754416,
        "timestamp": "2025-12-06T03:35:00.472306+00:00",
        "meta_object_name": "STARLINK-35679",
        "meta_object_id": "2025-257AE",
        "meta_epoch": "2025-12-05T05:04:49.336896",
        "meta_mean_motion": 15.49374917,
        "meta_eccentricity": 0.00012271,
        "meta_inclination": 53.1593,
        "meta_ra_of_asc_node": 299.7483,
        "meta_arg_of_pericenter": 105.0367,
        "meta_mean_anomaly": 255.0778,
        "meta_ephemeris_type": 0,
        "meta_classification_type": "U",
        "meta_norad_cat_id": 66408,
        "meta_element_set_no": 999,
        "meta_rev_at_epoch": 521,
        "meta_bstar": 0.0027685853,
        "meta_mean_motion_dot": 0.00157026,
        "meta_mean_motion_ddot": 0,
        "tle_line1": "1 66408U 25257AE  25339.21168214  .00157026  00000+0  27686-2 0  9993",
        "tle_line2": "2 66408  53.1593 299.7483 0001227 105.0367 255.0778 15.49374917  5210"
      },
      "geometry": {
        "type": "Point",
        "coordinates": [
          123.49073994626754,
          -10.807330567082746
        ]
      }
    },
    {
      "type": "Feature",
      "properties": {
        "norad_id": 66409,
        "name": "CHUTIAN-2 A",
        "group": "last-30-days",
        "lat": -71.3296977303462,
        "lon": -160.49094923209609,
        "alt_km": 727.7073967229117,
        "timestamp": "2025-12-06T03:35:00.472316+00:00",
        "meta_object_name": "CHUTIAN-2 A",
        "meta_object_id": "2025-256A",
        "meta_epoch": "2025-12-05T08:12:03.711168",
        "meta_mean_motion": 14.49921032,
        "meta_eccentricity": 0.0013503,
        "meta_inclination": 98.2767,
        "meta_ra_of_asc_node": 44.2334,
        "meta_arg_of_pericenter": 200.4106,
        "meta_mean_anomaly": 159.655,
        "meta_ephemeris_type": 0,
        "meta_classification_type": "U",
        "meta_norad_cat_id": 66409,
        "meta_element_set_no": 999,
        "meta_rev_at_epoch": 380,
        "meta_bstar": 4.7905968e-05,
        "meta_mean_motion_dot": 1.41e-06,
        "meta_mean_motion_ddot": 0,
        "tle_line1": "1 66409U 25256A   25339.34170962  .00000141  00000+0  47906-4 0  9994",
        "tle_line2": "2 66409  98.2767  44.2334 0013503 200.4106 159.6550 14.49921032  3808"
      },
      "geometry": {
        "type": "Point",
        "coordinates": [
          -160.49094923209609,
          -71.3296977303462
        ]
      }
    }
  ]
}